OBJECT_NAME,OBJECT_ID,EPOCH,MEAN_MOTION,ECCENTRICITY,INCLINATION,RA_OF_ASC_NODE,ARG_OF_PERICENTER,MEAN_ANOMALY,EPHEMERIS_TYPE,CLASSIFICATION_TYPE,NORAD_CAT_ID,ELEMENT_SET_NO,REV_AT_EPOCH,BSTAR,MEAN_MOTION_DOT,MEAN_MOTION_DDOT
ZHONGXING-2C,2015-063A,2026-06-08T19:00:31.048992,1.00268146,.0007708,0.2508,90.2727,95.8860,99.5530,0,U,41021,999,3889,0,-.307E-5,0
GSAT-15,2015-065A,2026-06-08T22:22:53.849280,1.00270773,.000395,0.0506,111.3310,327.9163,247.3053,0,U,41028,999,3871,0,-.241E-5,0
BADR-7 (ARABSAT-6B),2015-065B,2026-06-09T03:11:41.362368,1.00270763,.0003377,0.0365,234.9336,323.5063,132.9836,0,U,41029,999,3868,0,.161E-5,0
LAOSAT 1,2015-067A,2026-06-09T00:15:37.770048,1.00273953,.0002486,0.0382,186.9705,208.3846,354.4480,0,U,41034,999,3877,0,-.326E-5,0
TELSTAR 12V,2015-068A,2026-06-09T02:59:57.485760,1.00271113,.0002319,0.0226,64.7488,11.2903,211.4654,0,U,41036,999,3854,0,-.102E-5,0
ELEKTRO-L 2,2015-074A,2026-06-08T23:34:46.583040,1.00271818,.000097,6.6726,70.6232,284.4222,241.5278,0,U,41105,999,3842,0,-.102E-5,0
COSMOS 2513,2015-075A,2026-06-07T08:40:25.028256,1.00272440,.00036874,0.0781,99.8531,329.6914,36.5844,0,U,41121,999,3845,0,-.124E-5,0
EXPRESS-AMU1,2015-082A,2026-06-09T02:47:38.778720,1.00270182,.0002763,0.0022,71.1332,9.4514,254.9172,0,U,41191,999,3818,0,.172E-5,0
GAOFEN-4,2015-083A,2026-06-08T14:20:42.251136,1.00273550,.00041656,0.3341,83.8441,111.8448,22.1741,0,U,41194,999,3844,0,-.319E-5,0
BELINTERSAT-1,2016-001A,2026-06-09T01:36:19.795392,1.00274516,.0002183,0.0445,123.5213,287.2015,282.3172,0,U,41238,999,3815,0,.123E-5,0
IRNSS-1E,2016-003A,2026-06-08T15:37:22.092096,1.00269056,.0017915,33.2165,59.8739,179.3895,3.8192,0,U,41241,999,3799,0,-.296E-5,0
EUTELSAT 9B,2016-005A,2026-06-09T03:06:49.327776,1.00272574,.0001822,0.0600,72.3107,334.0412,266.8525,0,U,41310,999,3803,0,.78E-6,0
SES-9,2016-013A,2026-06-09T01:52:23.570112,1.00273663,.000199,0.0108,336.9667,107.7708,309.1218,0,U,41380,999,3735,0,-.329E-5,0
EUTELSAT 65 WEST A,2016-014A,2026-06-09T02:45:37.479168,1.00272364,.0002263,0.0501,8.8512,59.4991,165.3671,0,U,41382,999,3744,0,-.26E-5,0
IRNSS-1F,2016-015A,2026-06-09T01:30:57.810240,1.00278601,.0016592,5.3287,96.9647,186.7296,29.0825,0,U,41384,999,3758,0,.175E-5,0
BEIDOU-2 IGSO-6,2016-021A,2026-06-08T23:55:01.304832,1.00261117,.0057119,60.2137,38.1225,231.5364,79.8340,0,U,41434,999,3739,0,-.154E-5,0
IRNSS-1G,2016-027A,2026-06-08T19:07:55.158816,1.00270355,.0007493,5.1775,97.6673,352.8205,223.2545,0,U,41469,999,3709,0,-.317E-5,0
JCSAT-2B,2016-028A,2026-06-08T20:57:34.352064,1.00269953,.0000949,0.0184,353.1394,93.8697,278.6415,0,U,41471,999,3704,0,-.149E-5,0
THAICOM 8,2016-031A,2026-06-09T03:26:39.925824,1.00270432,.0003703,0.0672,46.4148,11.2988,330.0130,0,U,41552,999,3663,0,-.105E-5,0
INTELSAT 31 (IS-31),2016-035A,2026-06-09T01:24:00.862848,1.00270675,.0000898,0.0213,258.7378,346.6638,298.0021,0,U,41581,999,3660,0,-.134E-5,0
BEIDOU-2 G7,2016-037A,2026-06-09T00:10:30.759744,1.00268847,.0007243,1.6988,69.2500,2.6353,298.6706,0,U,41586,999,680,0,-.337E-5,0
ABS-2A (MONGOLSAT-1),2016-038A,2026-06-09T00:00:16.740864,1.00266911,.0001305,0.0183,322.2610,62.7949,307.1521,0,U,41588,999,3662,0,0,0
EUTELSAT 117 WEST B,2016-038B,2026-06-09T00:48:06.000192,1.00276750,.0000345,0.0422,159.6913,138.3370,214.4010,0,U,41589,999,3658,0,.4E-7,0
BRISAT,2016-039A,2026-06-08T20:56:34.445760,1.00270676,.0002055,0.0185,309.5317,127.6738,284.6997,0,U,41591,999,3652,0,-.18E-5,0
ECHOSTAR 18,2016-039B,2026-06-09T01:04:05.071296,1.00271708,.0001393,0.0178,340.8727,102.1330,129.0878,0,U,41592,999,3654,0,-.265E-5,0
MUOS-5,2016-041A,2026-06-09T05:01:40.387008,1.00271270,.0196949,2.2216,301.4852,260.8787,25.4083,0,U,41622,999,3700,0,-.97E-6,0
TIANTONG-1 1,2016-048A,2026-06-09T02:21:38.742048,1.00270717,.0006038,3.8330,43.3412,43.1119,307.8641,0,U,41725,999,3618,0,-.302E-5,0
JCSAT-16,2016-050A,2026-06-09T00:19:37.388352,1.00270208,.0000935,0.0182,355.7507,90.4670,320.0233,0,U,41729,999,3598,0,-.235E-5,0
USA 270,2016-052A,2026-06-08T02:16:56.129376,1.00284145,.0008515,4.1755,77.3049,337.9683,59.8197,0,U,41744,999,2804,0,.95E-6,0
USA 271,2016-052B,2026-06-07T19:08:42.969984,1.00262239,.0010783,4.1460,77.3775,157.2143,71.4983,0,U,41745,999,2782,0,-.344E-5,0
INTELSAT 36 (IS-36),2016-053A,2026-06-09T03:23:47.702112,1.00270520,.0001908,0.0108,347.9197,348.5502,40.4980,0,U,41747,999,3587,0,-.7E-7,0
INSAT-3DR,2016-054A,2026-06-09T03:25:02.582400,1.00270533,.0010442,0.0844,87.5464,186.6911,108.5347,0,U,41752,999,3573,0,-.6E-6,0
