ZHONGXING-2C            
1 41021U 15063A   26159.79202603 -.00000307  00000+0  00000+0 0  9994
2 41021   0.2508  90.2727 0007708  95.8860  99.5530  1.00268146 38897
GSAT-15                 
1 41028U 15065A   26159.93256770 -.00000241  00000+0  00000+0 0  9990
2 41028   0.0506 111.3310 0003950 327.9163 247.3053  1.00270773 38716
BADR-7 (ARABSAT-6B)     
1 41029U 15065B   26160.13311762  .00000161  00000+0  00000+0 0  9998
2 41029   0.0365 234.9336 0003377 323.5063 132.9836  1.00270763 38687
LAOSAT 1                
1 41034U 15067A   26160.01085382 -.00000326  00000+0  00000+0 0  9993
2 41034   0.0382 186.9705 0002486 208.3846 354.4480  1.00273953 38777
TELSTAR 12V             
1 41036U 15068A   26160.12497090 -.00000102  00000+0  00000+0 0  9993
2 41036   0.0226  64.7488 0002319  11.2903 211.4654  1.00271113 38543
ELEKTRO-L 2             
1 41105U 15074A   26159.98248360 -.00000102  00000+0  00000+0 0  9993
2 41105   6.6726  70.6232 0000970 284.4222 241.5278  1.00271818 38424
COSMOS 2513             
1 41121U 15075A   26158.36140079 -.00000124  00000+0  00000+0 0  9995
2 41121   0.0781  99.8531 0003687 329.6914  36.5844  1.00272440 38450
EXPRESS-AMU1            
1 41191U 15082A   26160.11642105  .00000172  00000+0  00000+0 0  9995
2 41191   0.0022  71.1332 0002763   9.4514 254.9172  1.00270182 38181
GAOFEN-4                
1 41194U 15083A   26159.59771124 -.00000319  00000+0  00000+0 0  9997
2 41194   0.3341  83.8441 0004165 111.8448  22.1741  1.00273550 38442
BELINTERSAT-1           
1 41238U 16001A   26160.06689578  .00000123  00000+0  00000+0 0  9994
2 41238   0.0445 123.5213 0002183 287.2015 282.3172  1.00274516 38157
IRNSS-1E                
1 41241U 16003A   26159.65095014 -.00000296  00000+0  00000+0 0  9991
2 41241  33.2165  59.8739 0017915 179.3895   3.8192  1.00269056 37990
EUTELSAT 9B             
1 41310U 16005A   26160.12973759  .00000078  00000+0  00000+0 0  9992
2 41310   0.0600  72.3107 0001822 334.0412 266.8525  1.00272574 38033
SES-9                   
1 41380U 16013A   26160.07805058 -.00000329  00000+0  00000+0 0  9998
2 41380   0.0108 336.9667 0001990 107.7708 309.1218  1.00273663 37356
EUTELSAT 65 WEST A      
1 41382U 16014A   26160.11501712 -.00000260  00000+0  00000+0 0  9990
2 41382   0.0501   8.8512 0002263  59.4991 165.3671  1.00272364 37442
IRNSS-1F                
1 41384U 16015A   26160.06316910  .00000175  00000+0  00000+0 0  9995
2 41384   5.3287  96.9647 0016592 186.7296  29.0825  1.00278601 37584
BEIDOU-2 IGSO-6         
1 41434U 16021A   26159.99654288 -.00000154  00000+0  00000+0 0  9999
2 41434  60.2137  38.1225 0057119 231.5364  79.8340  1.00261117 37397
IRNSS-1G                
1 41469U 16027A   26159.79716619 -.00000317  00000+0  00000+0 0  9999
2 41469   5.1775  97.6673 0007493 352.8205 223.2545  1.00270355 37092
JCSAT-2B                
1 41471U 16028A   26159.87331426 -.00000149  00000+0  00000+0 0  9994
2 41471   0.0184 353.1394 0000949  93.8697 278.6415  1.00269953 37046
THAICOM 8               
1 41552U 16031A   26160.14351766 -.00000105  00000+0  00000+0 0  9991
2 41552   0.0672  46.4148 0003703  11.2988 330.0130  1.00270432 36630
INTELSAT 31 (IS-31)     
1 41581U 16035A   26160.05834332 -.00000134  00000+0  00000+0 0  9994
2 41581   0.0213 258.7378 0000898 346.6638 298.0021  1.00270675 36603
BEIDOU-2 G7             
1 41586U 16037A   26160.00730046 -.00000337  00000+0  00000+0 0  9998
2 41586   1.6988  69.2500 0007243   2.6353 298.6706  1.00268847  6803
ABS-2A (MONGOLSAT-1)    
1 41588U 16038A   26160.00019376  .00000000  00000+0  00000+0 0  9993
2 41588   0.0183 322.2610 0001305  62.7949 307.1521  1.00266911 36624
EUTELSAT 117 WEST B     
1 41589U 16038B   26160.03340278  .00000004  00000+0  00000+0 0  9999
2 41589   0.0422 159.6913 0000345 138.3370 214.4010  1.00276750 36580
BRISAT                  
1 41591U 16039A   26159.87262090 -.00000180  00000+0  00000+0 0  9994
2 41591   0.0185 309.5317 0002055 127.6738 284.6997  1.00270676 36520
ECHOSTAR 18             
1 41592U 16039B   26160.04450314 -.00000265  00000+0  00000+0 0  9998
2 41592   0.0178 340.8727 0001393 102.1330 129.0878  1.00271708 36545
MUOS-5                  
1 41622U 16041A   26160.20949522 -.00000097  00000+0  00000+0 0  9990
2 41622   2.2216 301.4852 0196949 260.8787  25.4083  1.00271270 37001
TIANTONG-1 1            
1 41725U 16048A   26160.09836507 -.00000302  00000+0  00000+0 0  9995
2 41725   3.8330  43.3412 0006038  43.1119 307.8641  1.00270717 36183
JCSAT-16                
1 41729U 16050A   26160.01362718 -.00000235  00000+0  00000+0 0  9997
2 41729   0.0182 355.7507 0000935  90.4670 320.0233  1.00270208 35989
USA 270                 
1 41744U 16052A   26159.09509409  .00000095  00000+0  00000+0 0  9995
2 41744   4.1755  77.3049 0008515 337.9683  59.8197  1.00284145 28040
USA 271                 
1 41745U 16052B   26158.79771956 -.00000344  00000+0  00000+0 0  9998
2 41745   4.1460  77.3775 0010783 157.2143  71.4983  1.00262239 27822
INTELSAT 36 (IS-36)     
1 41747U 16053A   26160.14152433 -.00000007  00000+0  00000+0 0  9992
2 41747   0.0108 347.9197 0001908 348.5502  40.4980  1.00270520 35874
INSAT-3DR               
1 41752U 16054A   26160.14239100 -.00000060  00000+0  00000+0 0  9995
2 41752   0.0844  87.5464 0010442 186.6911 108.5347  1.00270533 35731
